{
  "type": "FeatureCollection",
  "features": [
    {
      "type": "Feature",
      "properties": {
        "norad_id": 57400,
        "name": "TIANMU-1 08",
        "group": "weather",
        "lat": -25.887299136854537,
        "lon": -132.51883231905708,
        "alt_km": 491.2362480948268,
        "timestamp": "2025-12-27T17:24:57.036198+00:00",
        "meta_object_name": "TIANMU-1 08",
        "meta_object_id": "2023-101B",
        "meta_epoch": "2025-12-27T11:48:11.697120",
        "meta_mean_motion": 15.28266187,
        "meta_eccentricity": 0.0006776,
        "meta_inclination": 97.2847,
        "meta_ra_of_asc_node": 50.8117,
        "meta_arg_of_pericenter": 41.7598,
        "meta_mean_anomaly": 318.4158,
        "meta_ephemeris_type": 0,
        "meta_classification_type": "U",
        "meta_norad_cat_id": 57400,
        "meta_element_set_no": 999,
        "meta_rev_at_epoch": 13540,
        "meta_bstar": 0.00030946,
        "meta_mean_motion_dot": 8.456e-05,
        "meta_mean_motion_ddot": 0,
        "tle_line1": "1 57400U 23101B   25361.49180205  .00008456  00000+0  30946-3 0  9996",
        "tle_line2": "2 57400  97.2847  50.8117 0006776  41.7598 318.4158 15.28266187135406"
      },
      "geometry": {
        "type": "Point",
        "coordinates": [
          -132.51883231905708,
          -25.887299136854537
        ]
      }
    },
    {
      "type": "Feature",
      "properties": {
        "norad_id": 57401,
        "name": "TIANMU-1 09",
        "group": "weather",
        "lat": -77.39044425866253,
        "lon": 85.4006567735814,
        "alt_km": 490.4076915498863,
        "timestamp": "2025-12-27T17:24:57.036215+00:00",
        "meta_object_name": "TIANMU-1 09",
        "meta_object_id": "2023-101C",
        "meta_epoch": "2025-12-27T11:28:42.598848",
        "meta_mean_motion": 15.28302741,
        "meta_eccentricity": 0.000603,
        "meta_inclination": 97.2804,
        "meta_ra_of_asc_node": 50.3041,
        "meta_arg_of_pericenter": 43.0152,
        "meta_mean_anomaly": 317.1559,
        "meta_ephemeris_type": 0,
        "meta_classification_type": "U",
        "meta_norad_cat_id": 57401,
        "meta_element_set_no": 999,
        "meta_rev_at_epoch": 13540,
        "meta_bstar": 0.00030495,
        "meta_mean_motion_dot": 8.34e-05,
        "meta_mean_motion_ddot": 0,
        "tle_line1": "1 57401U 23101C   25361.47827082  .00008340  00000+0  30495-3 0  9997",
        "tle_line2": "2 57401  97.2804  50.3041 0006030  43.0152 317.1559 15.28302741135403"
      },
      "geometry": {
        "type": "Point",
        "coordinates": [
          85.4006567735814,
          -77.39044425866253
        ]
      }
    },
    {
      "type": "Feature",
      "properties": {
        "norad_id": 57402,
        "name": "TIANMU-1 10",
        "group": "weather",
        "lat": 82.44943015806032,
        "lon": -53.66662757326057,
        "alt_km": 470.2165218463906,
        "timestamp": "2025-12-27T17:24:57.036249+00:00",
        "meta_object_name": "TIANMU-1 10",
        "meta_object_id": "2023-101D",
        "meta_epoch": "2025-12-27T12:18:05.012064",
        "meta_mean_motion": 15.28295597,
        "meta_eccentricity": 0.0007744,
        "meta_inclination": 97.2884,
        "meta_ra_of_asc_node": 51.203,
        "meta_arg_of_pericenter": 39.9578,
        "meta_mean_anomaly": 320.223,
        "meta_ephemeris_type": 0,
        "meta_classification_type": "U",
        "meta_norad_cat_id": 57402,
        "meta_element_set_no": 999,
        "meta_rev_at_epoch": 13540,
        "meta_bstar": 0.00030793,
        "meta_mean_motion_dot": 8.423e-05,
        "meta_mean_motion_ddot": 0,
        "tle_line1": "1 57402U 23101D   25361.51255801  .00008423  00000+0  30793-3 0  9990",
        "tle_line2": "2 57402  97.2884  51.2030 0007744  39.9578 320.2230 15.28295597135400"
      },
      "geometry": {
        "type": "Point",
        "coordinates": [
          -53.66662757326057,
          82.44943015806032
        ]
      }
    },
    {
      "type": "Feature",
      "properties": {
        "norad_id": 57490,
        "name": "FENGYUN 3F",
        "group": "weather",
        "lat": -77.15290797364314,
        "lon": 111.98996953049246,
        "alt_km": 833.6093983912106,
        "timestamp": "2025-12-27T17:24:57.036273+00:00",
        "meta_object_name": "FENGYUN 3F",
        "meta_object_id": "2023-111A",
        "meta_epoch": "2025-12-27T11:01:47.146944",
        "meta_mean_motion": 14.19897462,
        "meta_eccentricity": 8.72e-05,
        "meta_inclination": 98.7064,
        "meta_ra_of_asc_node": 69.5142,
        "meta_arg_of_pericenter": 117.7207,
        "meta_mean_anomaly": 242.4058,
        "meta_ephemeris_type": 0,
        "meta_classification_type": "U",
        "meta_norad_cat_id": 57490,
        "meta_element_set_no": 999,
        "meta_rev_at_epoch": 12449,
        "meta_bstar": 6.0853e-05,
        "meta_mean_motion_dot": 8.6e-07,
        "meta_mean_motion_ddot": 0,
        "tle_line1": "1 57490U 23111A   25361.45957346  .00000086  00000+0  60853-4 0  9992",
        "tle_line2": "2 57490  98.7064  69.5142 0000872 117.7207 242.4058 14.19897462124496"
      },
      "geometry": {
        "type": "Point",
        "coordinates": [
          111.98996953049246,
          -77.15290797364314
        ]
      }
    },
    {
      "type": "Feature",
      "properties": {
        "norad_id": 58584,
        "name": "ARKTIKA-M 2",
        "group": "weather",
        "lat": 10.817617530531212,
        "lon": -12.288178727827933,
        "alt_km": 9616.976951939308,
        "timestamp": "2025-12-27T17:24:57.036294+00:00",
        "meta_object_name": "ARKTIKA-M 2",
        "meta_object_id": "2023-198A",
        "meta_epoch": "2025-12-27T06:49:37.520256",
        "meta_mean_motion": 2.00602128,
        "meta_eccentricity": 0.686626,
        "meta_inclination": 63.2254,
        "meta_ra_of_asc_node": 173.3087,
        "meta_arg_of_pericenter": 268.0456,
        "meta_mean_anomaly": 18.8429,
        "meta_ephemeris_type": 0,
        "meta_classification_type": "U",
        "meta_norad_cat_id": 58584,
        "meta_element_set_no": 999,
        "meta_rev_at_epoch": 1487,
        "meta_bstar": 0,
        "meta_mean_motion_dot": 2.38e-06,
        "meta_mean_motion_ddot": 0,
        "tle_line1": "1 58584U 23198A   25361.28446204  .00000238  00000+0  00000+0 0  9991",
        "tle_line2": "2 58584  63.2254 173.3087 6866260 268.0456  18.8429  2.00602128 14871"
      },
      "geometry": {
        "type": "Point",
        "coordinates": [
          -12.288178727827933,
          10.817617530531212
        ]
      }
    },
    {
      "type": "Feature",
      "properties": {
        "norad_id": 58645,
        "name": "TIANMU-1 11",
        "group": "weather",
        "lat": 79.69778396504054,
        "lon": -24.24042333409689,
        "alt_km": 489.0858369639436,
        "timestamp": "2025-12-27T17:24:57.036312+00:00",
        "meta_object_name": "TIANMU-1 11",
        "meta_object_id": "2023-205A",
        "meta_epoch": "2025-12-27T12:19:43.292928",
        "meta_mean_motion": 15.2478036,
        "meta_eccentricity": 0.0007609,
        "meta_inclination": 97.3602,
        "meta_ra_of_asc_node": 20.8777,
        "meta_arg_of_pericenter": 246.9396,
        "meta_mean_anomaly": 113.104,
        "meta_ephemeris_type": 0,
        "meta_classification_type": "U",
        "meta_norad_cat_id": 58645,
        "meta_element_set_no": 999,
        "meta_rev_at_epoch": 11134,
        "meta_bstar": 0.00026906,
        "meta_mean_motion_dot": 6.604e-05,
        "meta_mean_motion_ddot": 0,
        "tle_line1": "1 58645U 23205A   25361.51369552  .00006604  00000+0  26906-3 0  9994",
        "tle_line2": "2 58645  97.3602  20.8777 0007609 246.9396 113.1040 15.24780360111345"
      },
      "geometry": {
        "type": "Point",
        "coordinates": [
          -24.24042333409689,
          79.69778396504054
        ]
      }
    },
    {
      "type": "Feature",
      "properties": {
        "norad_id": 58646,
        "name": "TIANMU-1 12",
        "group": "weather",
        "lat": -69.80299172544163,
        "lon": 41.45471600967359,
        "alt_km": 497.28468654675544,
        "timestamp": "2025-12-27T17:24:57.036328+00:00",
        "meta_object_name": "TIANMU-1 12",
        "meta_object_id": "2023-205B",
        "meta_epoch": "2025-12-27T13:00:07.753824",
        "meta_mean_motion": 15.24668714,
        "meta_eccentricity": 0.0006166,
        "meta_inclination": 97.359,
        "meta_ra_of_asc_node": 20.7059,
        "meta_arg_of_pericenter": 224.5189,
        "meta_mean_anomaly": 135.5554,
        "meta_ephemeris_type": 0,
        "meta_classification_type": "U",
        "meta_norad_cat_id": 58646,
        "meta_element_set_no": 999,
        "meta_rev_at_epoch": 11133,
        "meta_bstar": 0.00030865,
        "meta_mean_motion_dot": 7.56e-05,
        "meta_mean_motion_ddot": 0,
        "tle_line1": "1 58646U 23205B   25361.54175641  .00007560  00000+0  30865-3 0  9993",
        "tle_line2": "2 58646  97.3590  20.7059 0006166 224.5189 135.5554 15.24668714111338"
      },
      "geometry": {
        "type": "Point",
        "coordinates": [
          41.45471600967359,
          -69.80299172544163
        ]
      }
    }
  ]
}